[{"OBJECT_NAME":"TIANMU-1 07","OBJECT_ID":"2023-101A","EPOCH":"2026-03-06T13:47:20.454720","MEAN_MOTION":15.29118809,"ECCENTRICITY":0.00046097,"INCLINATION":97.2728,"RA_OF_ASC_NODE":118.5929,"ARG_OF_PERICENTER":142.4105,"MEAN_ANOMALY":217.7458,"EPHEMERIS_TYPE":0,"CLASSIFICATION_TYPE":"U","NORAD_CAT_ID":57399,"ELEMENT_SET_NO":999,"REV_AT_EPOCH":14596,"BSTAR":0.00029794732,"MEAN_MOTION_DOT":8.352e-5,"MEAN_MOTION_DDOT":0},{"OBJECT_NAME":"STARLINK-35734","OBJECT_ID":"2025-244V","EPOCH":"2026-03-09T17:29:55.478112","MEAN_MOTION":15.30199472,"ECCENTRICITY":0.00010409,"INCLINATION":53.1576,"RA_OF_ASC_NODE":229.8587,"ARG_OF_PERICENTER":60.4989,"MEAN_ANOMALY":299.6116,"EPHEMERIS_TYPE":0,"CLASSIFICATION_TYPE":"U","NORAD_CAT_ID":66225,"ELEMENT_SET_NO":999,"REV_AT_EPOCH":2166,"BSTAR":0.00077581515,"MEAN_MOTION_DOT":0.00022688,"MEAN_MOTION_DDOT":0}]
